[{"OBJECT_NAME":"STARLINK-2516","OBJECT_ID":"2021-036H","EPOCH":"2026-03-09T22:55:20.656416","MEAN_MOTION":15.30221874,"ECCENTRICITY":0.00018919,"INCLINATION":53.1591,"RA_OF_ASC_NODE":74.1373,"ARG_OF_PERICENTER":109.1584,"MEAN_ANOMALY":250.9622,"EPHEMERIS_TYPE":0,"CLASSIFICATION_TYPE":"U","NORAD_CAT_ID":48283,"ELEMENT_SET_NO":999,"REV_AT_EPOCH":26845,"BSTAR":0.001005498,"MEAN_MOTION_DOT":0.0002956,"MEAN_MOTION_DDOT":0},{"OBJECT_NAME":"CZ-6A DEB","OBJECT_ID":"2024-140RH","EPOCH":"2026-03-09T12:32:13.567200","MEAN_MOTION":15.23024459,"ECCENTRICITY":0.01073082,"INCLINATION":88.6757,"RA_OF_ASC_NODE":253.1302,"ARG_OF_PERICENTER":74.0491,"MEAN_ANOMALY":287.2547,"EPHEMERIS_TYPE":0,"CLASSIFICATION_TYPE":"U","NORAD_CAT_ID":61163,"ELEMENT_SET_NO":999,"REV_AT_EPOCH":8457,"BSTAR":0.0019108924,"MEAN_MOTION_DOT":0.00053105,"MEAN_MOTION_DDOT":0}]
